<?xml version="1.0" encoding="UTF-8"?>
<kml xmlns="http://www.opengis.net/kml/2.2" xmlns:gx="http://www.google.com/kml/ext/2.2" xmlns:kml="http://www.opengis.net/kml/2.2" xmlns:atom="http://www.w3.org/2005/Atom">
<Document id="document">
	<name>Untitled map project</name>
	<gx:CascadingStyle kml:id="__managed_style_0D946F687E404252D123_highlight">
		<styleUrl>https://earth.google.com/balloon_components/base/1.1.0.0/card_template.kml#main</styleUrl>
		<Style>
			<IconStyle>
				<scale>1.2</scale>
				<Icon>
					<href>https://earth.google.com/earth/document/icon?color=1976d2&amp;id=2000&amp;scale=4</href>
				</Icon>
				<hotSpot x="64" y="128" xunits="pixels" yunits="insetPixels"/>
			</IconStyle>
			<LabelStyle>
			</LabelStyle>
			<LineStyle>
				<color>ff2dc0fb</color>
				<width>6</width>
			</LineStyle>
			<PolyStyle>
				<color>40ffffff</color>
			</PolyStyle>
			<BalloonStyle>
			</BalloonStyle>
		</Style>
	</gx:CascadingStyle>
	<gx:CascadingStyle kml:id="__managed_style_0D946F687E404252D123_normal">
		<styleUrl>https://earth.google.com/balloon_components/base/1.1.0.0/card_template.kml#main</styleUrl>
		<Style>
			<IconStyle>
				<Icon>
					<href>https://earth.google.com/earth/document/icon?color=1976d2&amp;id=2000&amp;scale=4</href>
				</Icon>
				<hotSpot x="64" y="128" xunits="pixels" yunits="insetPixels"/>
			</IconStyle>
			<LabelStyle>
			</LabelStyle>
			<LineStyle>
				<color>ff2dc0fb</color>
				<width>4</width>
			</LineStyle>
			<PolyStyle>
				<color>40ffffff</color>
			</PolyStyle>
			<BalloonStyle>
			</BalloonStyle>
		</Style>
	</gx:CascadingStyle>
	<StyleMap id="__managed_style_0D946F687E404252D123">
		<Pair>
			<key>normal</key>
			<styleUrl>#__managed_style_0D946F687E404252D123_normal</styleUrl>
		</Pair>
		<Pair>
			<key>highlight</key>
			<styleUrl>#__managed_style_0D946F687E404252D123_highlight</styleUrl>
		</Pair>
	</StyleMap>
	<Placemark id="02BCCEFAB6404252D0DE">
		<name>Rietfontein Rhoodekranz River</name>
		<LookAt>
			<longitude>25.4525943605905</longitude>
			<latitude>-32.94615439158495</latitude>
			<altitude>673.4547493639669</altitude>
			<heading>0</heading>
			<tilt>0</tilt>
			<gx:fovy>30</gx:fovy>
			<range>13712.72665036144</range>
			<altitudeMode>absolute</altitudeMode>
		</LookAt>
		<styleUrl>#__managed_style_0D946F687E404252D123</styleUrl>
		<LineString>
			<coordinates>
				25.41894875717461,-32.92730885239327,0 25.41946750209947,-32.92683878310096,0 25.42021399201921,-32.92730399648696,0 25.42024334233914,-32.92764678866766,0 25.42168358119081,-32.92920751092131,0 25.42156087414656,-32.92938362792441,0 25.4212628864465,-32.92938960474834,0 25.42090080268047,-32.92971263676156,0 25.4207020740496,-32.92998743968119,0 25.42078461152635,-32.93074495149543,0 25.42101813679398,-32.9312714249027,0 25.42097800595029,-32.93201458592446,0 25.42137530918152,-32.9322891338074,0 25.42194267075043,-32.93226977648776,0 25.4220779296578,-32.93210820136677,0 25.42196122718905,-32.93187755722282,0 25.4220239790741,-32.93174953315069,0 25.42254539479099,-32.93170065806407,0 25.42312331203814,-32.93170053330183,0 25.42359425359148,-32.9317944621821,0 25.42399249227151,-32.93178008435039,0 25.42417956917159,-32.93151473974556,0 25.42418617309166,-32.931195532589,0 25.42392849103796,-32.93083183407528,0 25.42370013267508,-32.93037472888666,0 25.42364813560101,-32.93009180196068,0 25.42377130833964,-32.92983112459871,0 25.42398845247048,-32.92966879778987,0 25.42437573345832,-32.9297623362398,0 25.42458089468349,-32.93001826143916,0 25.42468102524267,-32.9303629952882,0 25.42484611630179,-32.93069828134514,0 25.42500997462215,-32.93095408726784,0 25.42515038237383,-32.93117045537727,0 25.42530746840006,-32.93151115412198,0 25.42529561662991,-32.93181152513339,0 25.42547694164426,-32.93205264654086,0 25.42572407051104,-32.93230890970791,0 25.42594776294446,-32.93258501709835,0 25.42618301808475,-32.93286391285562,0 25.42635403854794,-32.93309053501832,0 25.42657730814443,-32.93334187819275,0 25.42671221557978,-32.93364243558903,0 25.42671266549124,-32.93399747647249,0 25.42671338798819,-32.93438740134894,0 25.42668473835828,-32.93476989677416,0 25.42660312667409,-32.9350461549914,0 25.42641522509447,-32.9352978143958,0 25.42631515877422,-32.93553951411503,0 25.42648020255317,-32.93580617804792,0 25.42672683683329,-32.93596390021398,0 25.42731059491502,-32.93646334451848,0 25.42769211286387,-32.93695162191371,0 25.42798674338639,-32.93729750412809,0 25.42829266729837,-32.93763825112264,0 25.42865146779271,-32.93794432309567,0 25.42910473177547,-32.93813209002832,0 25.42971717352687,-32.93815698268397,0 25.43026254216306,-32.93831196743228,0 25.43094887846317,-32.93866692154354,0 25.43130953684695,-32.93899859204039,0 25.4316751609844,-32.93926587905289,0 25.43191028705225,-32.93963673571918,0 25.43160497955525,-32.94008316389037,0 25.43159196098974,-32.94051622455996,0 25.43153310568126,-32.94094748154716,0 25.43162045988027,-32.94139741585509,0 25.43207426362052,-32.94181240802695,0 25.4327833469301,-32.94204053598905,0 25.43360488964928,-32.94214970852879,0 25.43439301544812,-32.94193676664845,0 25.43498424284548,-32.94182241817883,0 25.43549939865551,-32.94206590838921,0 25.43599085097793,-32.94233424084062,0 25.43644164854105,-32.94266258507208,0 25.43680214222003,-32.94288088150248,0 25.43731412539941,-32.9431158012931,0 25.4378305961949,-32.94328029254287,0 25.43831612158731,-32.94344914880936,0 25.43898839254391,-32.94330076040854,0 25.43933303782139,-32.94299712963055,0 25.43971228774779,-32.9426281228878,0 25.44016488997397,-32.94232931120803,0 25.44063503860226,-32.94210988519772,0 25.44089050429148,-32.9418405895894,0 25.44116229776573,-32.9415966209466,0 25.44137056438322,-32.94141208031707,0 25.44156332415806,-32.94111957099592,0 25.44177840272252,-32.94074534601953,0 25.44194847917948,-32.94043530625594,0 25.44211706717047,-32.94003100660155,0 25.44217034177186,-32.93963001912473,0 25.44219442590465,-32.93927631797239,0 25.44227685143554,-32.93892597721062,0 25.44245844887885,-32.93860221482402,0 25.44256331980403,-32.93824673812819,0 25.44268485127546,-32.93791677210885,0 25.44275604456822,-32.93758664783542,0 25.44290011647243,-32.93723612194987,0 25.44309776810015,-32.93672737454801,0 25.44322284146476,-32.93633669540172,0 25.44316048019999,-32.93598141603304,0 25.44287445636545,-32.93552977805009,0 25.44268792327131,-32.93499344678933,0 25.44257301849374,-32.93458384964327,0 25.44232917793348,-32.93407844027506,0 25.4428771378516,-32.93378300220258,0 25.44371155350643,-32.93388782176435,0 25.44472465494607,-32.93409771060375,0 25.44607484717341,-32.93433280571883,0 25.44729902119597,-32.93464709777348,0 25.44808373356279,-32.93508866644621,0 25.44910886657447,-32.93532518095514,0 25.45016194808706,-32.93523163686924,0 25.45123890896248,-32.9354126877162,0 25.45184893083941,-32.93586912369062,0 25.45225464264023,-32.93620920548177,0 25.45262690342958,-32.93663215659949,0 25.45285625294376,-32.93745579556763,0 25.45276015425112,-32.93786915522305,0 25.45248107223906,-32.93813562438149,0 25.45244463792373,-32.93863640536522,0 25.45237840457535,-32.939156670037,0 25.45237245266826,-32.93968226207683,0 25.45220996042242,-32.94049057411132,0 25.45213137995227,-32.94080820817382,0 25.4520655075305,-32.94130876136152,0 25.45206584947295,-32.94167401399289,0 25.45222746539593,-32.94217012968441,0 25.45249351550284,-32.94250684294963,0 25.45346476302597,-32.9424610031793,0 25.45445411018071,-32.94221780253289,0 25.45514850569176,-32.94216153840021,0 25.45612051218709,-32.94240471306299,0 25.45644192473207,-32.94279578432887,0 25.45665586551776,-32.94305113660202,0 25.45611491057484,-32.94335797990428,0 25.45546231211473,-32.94357496205824,0 25.45462193246436,-32.94379184593367,0 25.45419022975178,-32.94389514371217,0 25.4534456894345,-32.94408608531291,0 25.45338492402232,-32.94451547557179,0 25.45313356425971,-32.94515901616626,0 25.45290335993819,-32.94597065146362,0 25.45305052419329,-32.94630926423953,0 25.45320144832107,-32.94719791550192,0 25.45308642956309,-32.9476763190587,0 25.45289844980439,-32.94817028716533,0 25.45284197574396,-32.94868728817462,0 25.45259368689032,-32.94931957756107,0 25.45238056212906,-32.949971865413,0 25.45230843694522,-32.950752886804,0 25.4520633647517,-32.95113173314321,0 25.45171955928528,-32.95202457226515,0 25.45157011301295,-32.95268980399572,0 25.45132826745881,-32.95338241116673,0 25.45122604007683,-32.95393362074498,0 25.45111358198237,-32.95415250061703,0 25.45089426603762,-32.95459205797519,0 25.45071812424777,-32.95511330331513,0 25.45064557540204,-32.95547655877811,0 25.45042527413625,-32.95583898247196,0 25.45039703876614,-32.95637319741459,0 25.45043202028245,-32.95673644959776,0 25.4504760193484,-32.95715211429001,0 25.45077958000401,-32.95767777909928,0 25.45097587121969,-32.95836498697297,0 25.45107804948255,-32.95876686561608,0 25.45120486018684,-32.95937233963652,0 25.45138244307899,-32.95985440038115,0 25.45160584821766,-32.96015202616123,0 25.45186313213567,-32.96068581885097,0 25.4520880151077,-32.96116037480011,0 25.4522225649534,-32.961642520142,0 25.45231472486488,-32.96213073645951,0 25.45168831587483,-32.96253605087186,0 25.45124683403388,-32.96295742231031,0 25.45091606478065,-32.96309621282236,0 25.44974504993194,-32.96368902868419,0 25.44940144546137,-32.96408551318757,0 25.44905215853522,-32.96448621745198,0 25.44890425613062,-32.9649562795361,0 25.44899063957044,-32.96559152275395,0 25.44924317980621,-32.96605544382718,0 25.44956047899641,-32.96629657380882,0 25.44991672555241,-32.96660577527788,0 25.45062733654515,-32.96668436803701,0 25.45120606657152,-32.96651392104196,0 25.45186418296228,-32.96622766206098,0 25.45243649082226,-32.96599531913429,0 25.45312672233031,-32.96570033639522,0 25.45349596216692,-32.96540126017018,0 25.45389665917467,-32.96506572226177,0 25.45450763909147,-32.96464113606506,0 25.45514797342287,-32.96416158429882,0 25.45558052113434,-32.96366988159458,0 25.45590121969395,-32.96334835101332,0 25.45664849606911,-32.96287188590554,0 25.45756920461183,-32.962370329412,0 25.45800232468408,-32.96206380654112,0 25.45847921337951,-32.96180432988563,0 25.45902467200368,-32.96144580350391,0 25.45954923114075,-32.96119226411779,0 25.46023705123994,-32.96091705403388,0 25.46060845310894,-32.96066232253572,0 25.46095298553205,-32.9603432299644,0 25.4614304076375,-32.95995844454937,0 25.46175154202736,-32.95969783930437,0 25.46221833790498,-32.95933942031198,0 25.46250641489056,-32.95894708770116,0 25.462680305721,-32.95860889540556,0 25.46279283086448,-32.95835909924279,0 25.46294715910403,-32.95816119048774,0 25.46315556879146,-32.95793611431258,0 25.46337901890827,-32.95780569182907,0 25.46367706901296,-32.95756077486741,0 25.46388587018843,-32.95736795022943,0 25.46424001131867,-32.95722803326989,0 25.46454876257383,-32.95716460218021,0 25.465079474981,-32.95725386531564,0 25.46545091381628,-32.9574878691149,0 25.46580457269209,-32.95771804102256,0 25.46623544397494,-32.95798684819101,0 25.46703385966057,-32.95834988042666,0 25.46781092075652,-32.9587038502607,0 25.46865809476376,-32.95920634160534,0 25.46901253004145,-32.95956988264493,0 25.4693992197817,-32.95995714551152,0 25.46972971624002,-32.96027631242259,0 25.47004202608111,-32.96065351078673,0 25.47036487489901,-32.96096611665138,0 25.4710115809989,-32.96134693450361,0 25.4715306810255,-32.9614524021415,0 25.47206784181069,-32.96164105104425,0 25.47259381579398,-32.96168878001363,0 25.47326818521822,-32.96180913649946,0 25.47381887994516,-32.961922539029,0 25.47478676154351,-32.96205681835932,0 25.47556928459685,-32.96227758205518,0 25.47623541560077,-32.96256299560341,0 25.47691066389539,-32.962977104663,0 25.47739196441215,-32.96352002247463,0 25.47769916556017,-32.96396102254921,0 25.47784777642338,-32.96446680493044,0 25.47782898996383,-32.96487737318552,0 25.47777701560989,-32.96526855941807,0 25.47744476224457,-32.96576636083651,0 25.47720564853754,-32.96619372049781,0 25.47690641025662,-32.96702901050918,0 25.47640966120401,-32.96758882058707,0 25.47617615697508,-32.96827536911909,0 25.4759673134113,-32.96867053325806,0 25.47592276036081,-32.96914054434283,0 25.4761227984956,-32.9698791645917,0 25.47617301350903,-32.97037701450697,0 25.47611675682566,-32.97100446991011,0 25.47615387663377,-32.97154557390032,0 25.47626626301705,-32.97191512399239,0 25.47646052380998,-32.97257726660045,0 25.47677941803243,-32.97312744643587,0 25.47697468029622,-32.97354697941077,0 25.47695409726798,-32.97385614789111,0 
			</coordinates>
		</LineString>
	</Placemark>
</Document>
</kml>
